{"type": "FeatureCollection", "features": [ {"type": "Feature", "properties": {"norad_id": 38487, "name": "COSMOS 2251 DEB", "group": "cosmos-2251-debris", "lat": 68.92906369591113, "lon": 173.9603387020802, "alt_km": 513.6152752759108, "timestamp": "2025-12-08T17:43:05.336196+00:00", "meta": {"OBJECT_NAME": "COSMOS 2251 DEB", "OBJECT_ID": "1993-036BTX", "EPOCH": "2025-12-06T20:56:11.470272", "MEAN_MOTION": 15.1665427, "ECCENTRICITY": 0.00224486, "INCLINATION": 73.9743, "RA_OF_ASC_NODE": 46.1118, "ARG_OF_PERICENTER": 218.6783, "MEAN_ANOMALY": 141.2806, "EPHEMERIS_TYPE": 0, "CLASSIFICATION_TYPE": "U", "NORAD_CAT_ID": 38487, "ELEMENT_SET_NO": 999, "REV_AT_EPOCH": 66711, "BSTAR": 0.0030578536, "MEAN_MOTION_DOT": 0.00060697, "MEAN_MOTION_DDOT": 0}, "tle": {"line1": "1 38487U 93036BTX 25340.87235498  .00060697  00000+0  30579-2 0  9994", "line2": "2 38487  73.9743  46.1118 0022448 218.6783 141.2806 15.16654270667111"}}, "geometry": {"type": "Point", "coordinates": [173.9603387020802, 68.92906369591113]}}, {"type": "Feature", "properties": {"norad_id": 39109, "name": "COSMOS 2251 DEB", "group": "cosmos-2251-debris", "lat": -25.998650645491303, "lon": -135.18032283954813, "alt_km": 622.7286537285299, "timestamp": "2025-12-08T17:43:05.336207+00:00", "meta": {"OBJECT_NAME": "COSMOS 2251 DEB", "OBJECT_ID": "1993-036BTY", "EPOCH": "2025-12-07T09:44:29.277888", "MEAN_MOTION": 14.70664574, "ECCENTRICITY": 0.00591147, "INCLINATION": 74.043, "RA_OF_ASC_NODE": 235.425, "ARG_OF_PERICENTER": 339.9553, "MEAN_ANOMALY": 141.919, "EPHEMERIS_TYPE": 0, "CLASSIFICATION_TYPE": "U", "NORAD_CAT_ID": 39109, "ELEMENT_SET_NO": 999, "REV_AT_EPOCH": 65095, "BSTAR": 0.0010290014, "MEAN_MOTION_DOT": 6.41e-05, "MEAN_MOTION_DDOT": 0}, "tle": {"line1": "1 39109U 93036BTY 25341.40589442  .00006410  00000+0  10290-2 0  9998", "line2": "2 39109  74.0430 235.4250 0059114 339.9553 141.9190 14.70664574650954"}}, "geometry": {"type": "Point", "coordinates": [-135.18032283954813, -25.998650645491303]}}, {"type": "Feature", "properties": {"norad_id": 39110, "name": "COSMOS 2251 DEB", "group": "cosmos-2251-debris", "lat": 45.80903256766523, "lon": -127.8831414438397, "alt_km": 716.4281213786144, "timestamp": "2025-12-08T17:43:05.336218+00:00", "meta": {"OBJECT_NAME": "COSMOS 2251 DEB", "OBJECT_ID": "1993-036BTZ", "EPOCH": "2025-12-03T13:14:13.055136", "MEAN_MOTION": 14.72215365, "ECCENTRICITY": 0.00964609, "INCLINATION": 73.9598, "RA_OF_ASC_NODE": 79.4668, "ARG_OF_PERICENTER": 313.6965, "MEAN_ANOMALY": 59.6182, "EPHEMERIS_TYPE": 0, "CLASSIFICATION_TYPE": "U", "NORAD_CAT_ID": 39110, "ELEMENT_SET_NO": 999, "REV_AT_EPOCH": 62349, "BSTAR": 0.00066560445, "MEAN_MOTION_DOT": 4.484e-05, "MEAN_MOTION_DDOT": 0}, "tle": {"line1": "1 39110U 93036BTZ 25337.55153999  .00004484  00000+0  66560-3 0  9996", "line2": "2 39110  73.9598  79.4668 0096460 313.6965  59.6182 14.72215365623496"}}, "geometry": {"type": "Point", "coordinates": [-127.8831414438397, 45.80903256766523]}}, {"type": "Feature", "properties": {"norad_id": 39111, "name": "COSMOS 2251 DEB", "group": "cosmos-2251-debris", "lat": -6.844053784086392, "lon": -128.56515627836168, "alt_km": 537.095569429337, "timestamp": "2025-12-08T17:43:05.336228+00:00", "meta": {"OBJECT_NAME": "COSMOS 2251 DEB", "OBJECT_ID": "1993-036BUA", "EPOCH": "2025-12-01T22:58:55.551360", "MEAN_MOTION": 15.11912111, "ECCENTRICITY": 0.00109111, "INCLINATION": 74.0059, "RA_OF_ASC_NODE": 63.5328, "ARG_OF_PERICENTER": 39.1207, "MEAN_ANOMALY": 321.0773, "EPHEMERIS_TYPE": 0, "CLASSIFICATION_TYPE": "U", "NORAD_CAT_ID": 39111, "ELEMENT_SET_NO": 999, "REV_AT_EPOCH": 8982, "BSTAR": 0.0056424119, "MEAN_MOTION_DOT": 0.00098096, "MEAN_MOTION_DDOT": 0}, "tle": {"line1": "1 39111U 93036BUA 25335.95758740  .00098096  00000+0  56424-2 0  9993", "line2": "2 39111  74.0059  63.5328 0010911  39.1207 321.0773 15.11912111 89826"}}, "geometry": {"type": "Point", "coordinates": [-128.56515627836168, -6.844053784086392]}}, {"type": "Feature", "properties": {"norad_id": 39546, "name": "COSMOS 2251 DEB", "group": "cosmos-2251-debris", "lat": -66.85133214760027, "lon": 7.008714981966473, "alt_km": 580.0504189507183, "timestamp": "2025-12-08T17:43:05.336239+00:00", "meta": {"OBJECT_NAME": "COSMOS 2251 DEB", "OBJECT_ID": "1993-036BUC", "EPOCH": "2025-12-08T03:42:31.565664", "MEAN_MOTION": 14.91860989, "ECCENTRICITY": 0.00440411, "INCLINATION": 73.9971, "RA_OF_ASC_NODE": 146.0172, "ARG_OF_PERICENTER": 306.5217, "MEAN_ANOMALY": 53.1912, "EPHEMERIS_TYPE": 0, "CLASSIFICATION_TYPE": "U", "NORAD_CAT_ID": 39546, "ELEMENT_SET_NO": 999, "REV_AT_EPOCH": 64368, "BSTAR": 0.0017169812, "MEAN_MOTION_DOT": 0.0001768, "MEAN_MOTION_DDOT": 0}, "tle": {"line1": "1 39546U 93036BUC 25342.15453201  .00017680  00000+0  17170-2 0  9994", "line2": "2 39546  73.9971 146.0172 0044041 306.5217  53.1912 14.91860989643686"}}, "geometry": {"type": "Point", "coordinates": [7.008714981966473, -66.85133214760027]}}, {"type": "Feature", "properties": {"norad_id": 39547, "name": "COSMOS 2251 DEB", "group": "cosmos-2251-debris", "lat": 72.73875899749217, "lon": 93.98916952177323, "alt_km": 548.8217989541163, "timestamp": "2025-12-08T17:43:05.336249+00:00", "meta": {"OBJECT_NAME": "COSMOS 2251 DEB", "OBJECT_ID": "1993-036BUD", "EPOCH": "2025-12-06T21:23:36.921120", "MEAN_MOTION": 15.02705271, "ECCENTRICITY": 0.00049117, "INCLINATION": 74.0025, "RA_OF_ASC_NODE": 30.3495, "ARG_OF_PERICENTER": 30.2644, "MEAN_ANOMALY": 145.7961, "EPHEMERIS_TYPE": 0, "CLASSIFICATION_TYPE": "U", "NORAD_CAT_ID": 39547, "ELEMENT_SET_NO": 999, "REV_AT_EPOCH": 63937, "BSTAR": 0.003687305, "MEAN_MOTION_DOT": 0.00049566, "MEAN_MOTION_DDOT": 0}, "tle": {"line1": "1 39547U 93036BUD 25340.89139955  .00049566  00000+0  36873-2 0  9990", "line2": "2 39547  74.0025  30.3495 0004911  30.2644 145.7961 15.02705271639377"}}, "geometry": {"type": "Point", "coordinates": [93.98916952177323, 72.73875899749217]}}, {"type": "Feature", "properties": {"norad_id": 39553, "name": "COSMOS 2251 DEB", "group": "cosmos-2251-debris", "lat": -59.49396994187224, "lon": -52.13088661971468, "alt_km": 1047.324998041382, "timestamp": "2025-12-08T17:43:05.336260+00:00", "meta": {"OBJECT_NAME": "COSMOS 2251 DEB", "OBJECT_ID": "1993-036BUK", "EPOCH": "2025-12-07T06:00:50.455872", "MEAN_MOTION": 13.99876591, "ECCENTRICITY": 0.02014092, "INCLINATION": 74.0304, "RA_OF_ASC_NODE": 339.5232, "ARG_OF_PERICENTER": 116.8065, "MEAN_ANOMALY": 245.3825, "EPHEMERIS_TYPE": 0, "CLASSIFICATION_TYPE": "U", "NORAD_CAT_ID": 39553, "ELEMENT_SET_NO": 999, "REV_AT_EPOCH": 75540, "BSTAR": 0.00088887208, "MEAN_MOTION_DOT": 1.532e-05, "MEAN_MOTION_DDOT": 0}, "tle": {"line1": "1 39553U 93036BUK 25341.25058398  .00001532  00000+0  88887-3 0  9993", "line2": "2 39553  74.0304 339.5232 0201409 116.8065 245.3825 13.99876591755403"}}, "geometry": {"type": "Point", "coordinates": [-52.13088661971468, -59.49396994187224]}}, {"type": "Feature", "properties": {"norad_id": 39554, "name": "COSMOS 2251 DEB", "group": "cosmos-2251-debris", "lat": 3.3212509056718553, "lon": 91.92595409809832, "alt_km": 539.3704984700471, "timestamp": "2025-12-08T17:43:05.336270+00:00", "meta": {"OBJECT_NAME": "COSMOS 2251 DEB", "OBJECT_ID": "1993-036BUL", "EPOCH": "2025-12-08T04:30:55.180224", "MEAN_MOTION": 15.09804446, "ECCENTRICITY": 0.00028645, "INCLINATION": 74.0193, "RA_OF_ASC_NODE": 274.0147, "ARG_OF_PERICENTER": 72.8119, "MEAN_ANOMALY": 354.7517, "EPHEMERIS_TYPE": 0, "CLASSIFICATION_TYPE": "U", "NORAD_CAT_ID": 39554, "ELEMENT_SET_NO": 999, "REV_AT_EPOCH": 64316, "BSTAR": 0.0036116882, "MEAN_MOTION_DOT": 0.00058838, "MEAN_MOTION_DDOT": 0}, "tle": {"line1": "1 39554U 93036BUL 25342.18813866  .00058838  00000+0  36117-2 0  9995", "line2": "2 39554  74.0193 274.0147 0002864  72.8119 354.7517 15.09804446643168"}}, "geometry": {"type": "Point", "coordinates": [91.92595409809832, 3.3212509056718553]}}, {"type": "Feature", "properties": {"norad_id": 39583, "name": "COSMOS 2251 DEB", "group": "cosmos-2251-debris", "lat": -32.25219096045002, "lon": 85.39289700544276, "alt_km": 785.7798364592018, "timestamp": "2025-12-08T17:43:05.336281+00:00", "meta": {"OBJECT_NAME": "COSMOS 2251 DEB", "OBJECT_ID": "1993-036BUN", "EPOCH": "2025-12-08T00:17:58.189056", "MEAN_MOTION": 14.60283512, "ECCENTRICITY": 0.01370352, "INCLINATION": 73.9395, "RA_OF_ASC_NODE": 256.3131, "ARG_OF_PERICENTER": 10.5711, "MEAN_ANOMALY": 349.8282, "EPHEMERIS_TYPE": 0, "CLASSIFICATION_TYPE": "U", "NORAD_CAT_ID": 39583, "ELEMENT_SET_NO": 999, "REV_AT_EPOCH": 61710, "BSTAR": 0.0025519779, "MEAN_MOTION_DOT": 0.00014063, "MEAN_MOTION_DDOT": 0}, "tle": {"line1": "1 39583U 93036BUN 25342.01247904  .00014063  00000+0  25520-2 0  9991", "line2": "2 39583  73.9395 256.3131 0137035  10.5711 349.8282 14.60283512617104"}}, "geometry": {"type": "Point", "coordinates": [85.39289700544276, -32.25219096045002]}}, {"type": "Feature", "properties": {"norad_id": 39585, "name": "COSMOS 2251 DEB", "group": "cosmos-2251-debris", "lat": 59.661978083749645, "lon": -21.78612786021099, "alt_km": 645.6600869445847, "timestamp": "2025-12-08T17:43:05.336292+00:00", "meta": {"OBJECT_NAME": "COSMOS 2251 DEB", "OBJECT_ID": "1993-036BUQ", "EPOCH": "2025-11-29T06:16:21.203328", "MEAN_MOTION": 14.58611374, "ECCENTRICITY": 0.00652828, "INCLINATION": 74.0406, "RA_OF_ASC_NODE": 326.9733, "ARG_OF_PERICENTER": 91.8532, "MEAN_ANOMALY": 269.0111, "EPHEMERIS_TYPE": 0, "CLASSIFICATION_TYPE": "U", "NORAD_CAT_ID": 39585, "ELEMENT_SET_NO": 999, "REV_AT_EPOCH": 62324, "BSTAR": 0.00023928135, "MEAN_MOTION_DOT": 1.117e-05, "MEAN_MOTION_DDOT": 0}, "tle": {"line1": "1 39585U 93036BUQ 25333.26135652  .00001117  00000+0  23928-3 0  9993", "line2": "2 39585  74.0406 326.9733 0065282  91.8532 269.0111 14.58611374623244"}}, "geometry": {"type": "Point", "coordinates": [-21.78612786021099, 59.661978083749645]}}]}